[{"OBJECT_NAME":"STARLINK-31261","OBJECT_ID":"2024-041L","EPOCH":"2026-03-09T01:29:07.506816","MEAN_MOTION":15.27591407,"ECCENTRICITY":0.0001959,"INCLINATION":43.0063,"RA_OF_ASC_NODE":314.4049,"ARG_OF_PERICENTER":279.6458,"MEAN_ANOMALY":80.4173,"EPHEMERIS_TYPE":0,"CLASSIFICATION_TYPE":"U","NORAD_CAT_ID":59084,"ELEMENT_SET_NO":999,"REV_AT_EPOCH":11422,"BSTAR":-0.0001571178,"MEAN_MOTION_DOT":-4.585e-5,"MEAN_MOTION_DDOT":0},{"OBJECT_NAME":"OBJECT C","OBJECT_ID":"2024-092C","EPOCH":"2026-03-09T23:10:26.961312","MEAN_MOTION":15.27308901,"ECCENTRICITY":0.00097974,"INCLINATION":97.6475,"RA_OF_ASC_NODE":197.1606,"ARG_OF_PERICENTER":169.1353,"MEAN_ANOMALY":191.0098,"EPHEMERIS_TYPE":0,"CLASSIFICATION_TYPE":"U","NORAD_CAT_ID":59775,"ELEMENT_SET_NO":999,"REV_AT_EPOCH":10042,"BSTAR":0.00057925748,"MEAN_MOTION_DOT":0.00015454,"MEAN_MOTION_DDOT":0}]
